OBJECT_NAME,OBJECT_ID,EPOCH,MEAN_MOTION,ECCENTRICITY,INCLINATION,RA_OF_ASC_NODE,ARG_OF_PERICENTER,MEAN_ANOMALY,EPHEMERIS_TYPE,CLASSIFICATION_TYPE,NORAD_CAT_ID,ELEMENT_SET_NO,REV_AT_EPOCH,BSTAR,MEAN_MOTION_DOT,MEAN_MOTION_DDOT
STARLINK-37374,2026-111F,2026-06-18T07:43:44.403744,15.49323601,.00007774,53.1603,147.8959,95.2301,264.8797,0,U,69153,999,441,.51376114E-3,.28243E-3,0
STARLINK-37235,2026-111G,2026-06-18T08:14:33.095040,15.49325902,.00011274,53.1608,148.0366,59.9204,300.1917,0,U,69154,999,441,.70146248E-3,.38781E-3,0
STARLINK-37329,2026-111H,2026-06-18T14:00:01.000224,15.51131986,.00013469,53.1603,145.2106,111.6713,254.8026,0,U,69155,999,577,-.47394895E-1,-.2495358E-1,0
STARLINK-37345,2026-111J,2026-06-18T14:00:01.000224,15.52778972,.00006923,53.1602,145.1308,106.2512,299.3727,0,U,69156,999,577,-.45307323E-1,-.252753E-1,0
STARLINK-37353,2026-111K,2026-06-18T14:00:01.000224,15.53170044,.00004562,53.1597,145.1183,91.9407,319.8858,0,U,69157,999,577,-.44737871E-1,-.2531037E-1,0
STARLINK-37363,2026-111L,2026-06-18T14:00:01.000224,15.52836730,.00009798,53.1593,145.1246,102.7492,305.7136,0,U,69158,999,577,-.22422081E-1,-.128147E-1,0
STARLINK-37343,2026-111M,2026-06-18T07:43:56.567136,15.49297321,.00014784,53.1602,147.8935,83.5505,276.5673,0,U,69159,999,441,.10867006E-2,.60434E-3,0
STARLINK-37328,2026-111N,2026-06-18T14:00:01.000224,15.53677737,.00007341,53.1596,145.0754,86.9591,345.9237,0,U,69160,999,577,-.42435978E-1,-.2408059E-1,0
STARLINK-37311,2026-111P,2026-06-18T14:00:01.000224,15.56750532,.00007725,53.1594,145.1228,96.0238,313.5578,0,U,69161,999,577,-.39394477E-1,-.2493198E-1,0
STARLINK-36286,2026-111Q,2026-06-18T14:00:01.000224,15.49307262,.00018298,53.1601,145.5536,101.2059,95.9809,0,U,69162,999,577,-.15981478E-3,-.9326E-4,0
STARLINK-37196,2026-111R,2026-06-18T14:00:01.000224,15.57918462,.00006728,53.1599,145.1169,101.6262,311.0148,0,U,69163,999,577,-.38340687E-1,-.2530243E-1,0
STARLINK-36288,2026-111S,2026-06-18T14:00:01.000224,15.49320553,.00008946,53.1604,145.5243,110.5331,101.1137,0,U,69164,999,577,-.14008007E-3,-.8233E-4,0
STARLINK-37445,2026-111T,2026-06-18T14:00:01.000224,15.49332473,.00007209,53.1601,145.6281,59.1625,101.1356,0,U,69165,999,577,-.12383705E-3,-.7334E-4,0
STARLINK-37491,2026-111U,2026-06-18T14:00:01.000224,15.51259895,.00009134,53.1604,145.2918,95.1206,231.2631,0,U,69166,999,577,-.45642265E-1,-.2422767E-1,0
STARLINK-37474,2026-111V,2026-06-18T14:00:01.000224,15.58295246,.00009204,53.1602,145.1135,100.9510,313.4222,0,U,69167,999,577,-.25787132E-1,-.1773463E-1,0
STARLINK-37469,2026-111W,2026-06-18T08:08:14.582688,15.49321422,.00012664,53.1607,148.0041,69.7537,290.3608,0,U,69168,999,441,.62511602E-3,.34487E-3,0
STARLINK-37515,2026-111X,2026-06-18T14:00:01.000224,15.49302945,.0000934,53.1601,145.3803,86.9410,195.2017,0,U,69169,999,577,-.55984148E-4,-.3559E-4,0
STARLINK-37437,2026-111Y,2026-06-18T14:00:01.000224,15.51523043,.00004259,53.1604,145.1937,78.7611,294.9069,0,U,69170,999,577,-.51206286E-1,-.2704119E-1,0
STARLINK-37392,2026-111Z,2026-06-18T14:00:01.000224,15.52531227,.0000941,53.1604,145.2838,64.7631,264.3101,0,U,69171,999,577,-.47888074E-1,-.2633343E-1,0
STARLINK-37472,2026-111AA,2026-06-18T14:00:01.000224,15.49306650,.00007689,53.1593,145.8419,112.4470,300.4433,0,U,69172,999,577,-.53800954E-4,-.3438E-4,0
STARLINK-37461,2026-111AB,2026-06-18T07:56:33.380160,15.49325873,.00012447,53.1602,147.9513,65.8689,294.2450,0,U,69173,999,441,.68101873E-3,.37632E-3,0
STARLINK-37333,2026-111AC,2026-06-18T14:00:01.000224,15.49300894,.00006307,53.1605,145.5471,75.9508,123.7000,0,U,69174,999,577,-.14698668E-3,-.8611E-4,0
STARLINK-37385,2026-111AD,2026-06-18T07:45:30.171168,15.49327202,.0000664,53.1603,147.9009,91.4846,268.6239,0,U,69175,999,441,.44406348E-3,.24341E-3,0
STARLINK-37414,2026-111AE,2026-06-18T14:00:01.000224,15.49314071,.00014434,53.1602,145.3525,105.6545,189.1881,0,U,69176,999,577,-.94129435E-4,-.5681E-4,0
STRIX-7,2026-112A,2026-06-18T12:04:23.996064,15.01439567,.00231523,44.9069,185.5380,54.7276,305.5757,0,U,69177,999,407,.13367213E-3,.1527E-4,0
SHENZHOU-23 (SZ-23),2026-113A,2026-06-18T13:50:23.178624,15.60863218,.0007383,41.4698,313.5456,89.2734,270.8951,0,U,69180,999,29364,.21350369E-3,.18077E-3,0
STARLINK-37380,2026-114A,2026-06-18T14:42:29.929824,15.78095526,.00008895,53.1571,195.3937,47.2064,312.9033,0,U,69182,999,499,.94268757E-3,.166539E-2,0
STARLINK-37089,2026-114B,2026-06-18T14:41:09.305664,15.78087761,.00009981,53.1579,195.3878,50.1717,309.9392,0,U,69183,999,499,.88383956E-3,.155849E-2,0
STARLINK-37428,2026-114C,2026-06-18T08:34:19.646112,15.78105937,.00015594,53.1570,196.6431,92.1735,267.9465,0,U,69184,999,495,.94056697E-3,.166236E-2,0
