STARLINK-37374          
1 69153U 26111F   26169.32204171  .00028243  00000+0  51376-3 0  9992
2 69153  53.1603 147.8959 0000777  95.2301 264.8797 15.49323601  4414
STARLINK-37235          
1 69154U 26111G   26169.34343860  .00038781  00000+0  70146-3 0  9998
2 69154  53.1608 148.0366 0001127  59.9204 300.1917 15.49325902  4418
STARLINK-37329          
1 69155U 26111H   26169.58334491 -.02495358  00000+0 -47395-1 0  9994
2 69155  53.1603 145.2106 0001346 111.6713 254.8026 15.51131986  5775
STARLINK-37345          
1 69156U 26111J   26169.58334491 -.02527530  00000+0 -45307-1 0  9994
2 69156  53.1602 145.1308 0000692 106.2512 299.3727 15.52778972  5773
STARLINK-37353          
1 69157U 26111K   26169.58334491 -.02531037  00000+0 -44738-1 0  9999
2 69157  53.1597 145.1183 0000456  91.9407 319.8858 15.53170044  5779
STARLINK-37363          
1 69158U 26111L   26169.58334491 -.01281470  00000+0 -22422-1 0  9998
2 69158  53.1593 145.1246 0000979 102.7492 305.7136 15.52836730  5774
STARLINK-37343          
1 69159U 26111M   26169.32218249  .00060434  00000+0  10867-2 0  9996
2 69159  53.1602 147.8935 0001478  83.5505 276.5673 15.49297321  4410
STARLINK-37328          
1 69160U 26111N   26169.58334491 -.02408059  00000+0 -42436-1 0  9993
2 69160  53.1596 145.0754 0000734  86.9591 345.9237 15.53677737  5774
STARLINK-37311          
1 69161U 26111P   26169.58334491 -.02493198  00000+0 -39394-1 0  9991
2 69161  53.1594 145.1228 0000772  96.0238 313.5578 15.56750532  5779
STARLINK-36286          
1 69162U 26111Q   26169.58334491 -.00009326  00000+0 -15981-3 0  9994
2 69162  53.1601 145.5536 0001829 101.2059  95.9809 15.49307262  5777
STARLINK-37196          
1 69163U 26111R   26169.58334491 -.02530243  00000+0 -38341-1 0  9997
2 69163  53.1599 145.1169 0000672 101.6262 311.0148 15.57918462  5774
STARLINK-36288          
1 69164U 26111S   26169.58334491 -.00008233  00000+0 -14008-3 0  9991
2 69164  53.1604 145.5243 0000894 110.5331 101.1137 15.49320553  5776
STARLINK-37445          
1 69165U 26111T   26169.58334491 -.00007334  00000+0 -12384-3 0  9998
2 69165  53.1601 145.6281 0000720  59.1625 101.1356 15.49332473  5776
STARLINK-37491          
1 69166U 26111U   26169.58334491 -.02422767  00000+0 -45642-1 0  9993
2 69166  53.1604 145.2918 0000913  95.1206 231.2631 15.51259895  5772
STARLINK-37474          
1 69167U 26111V   26169.58334491 -.01773463  00000+0 -25787-1 0  9993
2 69167  53.1602 145.1135 0000920 100.9510 313.4222 15.58295246  5778
STARLINK-37469          
1 69168U 26111W   26169.33905767  .00034487  00000+0  62512-3 0  9999
2 69168  53.1607 148.0041 0001266  69.7537 290.3608 15.49321422  4414
STARLINK-37515          
1 69169U 26111X   26169.58334491 -.00003559  00000+0 -55984-4 0  9991
2 69169  53.1601 145.3803 0000934  86.9410 195.2017 15.49302945  5773
STARLINK-37437          
1 69170U 26111Y   26169.58334491 -.02704119  00000+0 -51206-1 0  9995
2 69170  53.1604 145.1937 0000425  78.7611 294.9069 15.51523043  5772
STARLINK-37392          
1 69171U 26111Z   26169.58334491 -.02633343  00000+0 -47888-1 0  9997
2 69171  53.1604 145.2838 0000941  64.7631 264.3101 15.52531227  5776
STARLINK-37472          
1 69172U 26111AA  26169.58334491 -.00003438  00000+0 -53801-4 0  9997
2 69172  53.1593 145.8419 0000768 112.4470 300.4433 15.49306650  5770
STARLINK-37461          
1 69173U 26111AB  26169.33094190  .00037632  00000+0  68102-3 0  9990
2 69173  53.1602 147.9513 0001244  65.8689 294.2450 15.49325873  4410
STARLINK-37333          
1 69174U 26111AC  26169.58334491 -.00008611  00000+0 -14699-3 0  9998
2 69174  53.1605 145.5471 0000630  75.9508 123.7000 15.49300894  5774
STARLINK-37385          
1 69175U 26111AD  26169.32326587  .00024341  00000+0  44406-3 0  9993
2 69175  53.1603 147.9009 0000664  91.4846 268.6239 15.49327202  4416
STARLINK-37414          
1 69176U 26111AE  26169.58334491 -.00005681  00000+0 -94129-4 0  9991
2 69176  53.1602 145.3525 0001443 105.6545 189.1881 15.49314071  5771
STRIX-7                 
1 69177U 26112A   26169.50305551  .00001527  00000+0  13367-3 0  9997
2 69177  44.9069 185.5380 0023152  54.7276 305.5757 15.01439567  4072
SHENZHOU-23 (SZ-23)     
1 69180U 26113A   26169.57665716  .00018077  00000+0  21350-3 0  9990
2 69180  41.4698 313.5456 0007383  89.2734 270.8951 15.60863218293645
STARLINK-37380          
1 69182U 26114A   26169.61284641  .00166539  00000+0  94269-3 0  9998
2 69182  53.1571 195.3937 0000889  47.2064 312.9033 15.78095526  4996
STARLINK-37089          
1 69183U 26114B   26169.61191326  .00155849  00000+0  88384-3 0  9999
2 69183  53.1579 195.3878 0000998  50.1717 309.9392 15.78087761  4994
STARLINK-37428          
1 69184U 26114C   26169.35717183  .00166236  00000+0  94057-3 0  9992
2 69184  53.1570 196.6431 0001559  92.1735 267.9465 15.78105937  4951
